NORAD_CAT_ID,OBJECT_NAME,OBJECT_TYPE,EPOCH,MEAN_MOTION,ECCENTRICITY,INCLINATION,RA_OF_ASC_NODE,ARG_OF_PERICENTER,MEAN_ANOMALY,BSTAR,MEAN_MOTION_DOT,MEAN_MOTION_DDOT,TLE_LINE0,TLE_LINE1,TLE_LINE2,SEMIMAJOR_AXIS,PERIOD,APOGEE,PERIGEE,DECAYED
52310.0,STARLINK-3688,PAYLOAD,2022-07-16 22:00:00,15.43339812,0.0001469,53.2173,309.5447,40.467,353.4161,-0.025771,-0.01057736,0.0,0 STARLINK-3688,1 52310U 22041BB  22197.91667824 -.01057736  00000-0 -25771-1 0  9998,2 52310  53.2173 309.5447 0001469  40.4670 353.4161 15.43339812  1303,6814.398,93.304,437.264,435.262,0.0
52310.0,STARLINK-3688,PAYLOAD,2022-07-17 14:00:01,15.4181953,0.0001907,53.2174,306.3922,36.4824,101.6563,-0.027064,-0.01070276,0.0,0 STARLINK-3688,1 52310U 22041BB  22198.58334491 -.01070276  00000-0 -27064-1 0  9994,2 52310  53.2174 306.3922 0001907  36.4824 101.6563 15.41819530 14884,6818.876,93.396,442.042,439.441,0.0
52310.0,STARLINK-3688,PAYLOAD,2022-07-17 22:00:00,15.41060631,0.000183,53.2173,304.8178,38.1411,150.7568,-0.027791,-0.01071306,0.0,0 STARLINK-3688,1 52310U 22041BB  22198.91667824 -.01071306  00000-0 -27791-1 0  9992,2 52310  53.2173 304.8178 0001830  38.1411 150.7568 15.41060631  1308,6821.115,93.442,444.228,441.732,0.0
52310.0,STARLINK-3688,PAYLOAD,2022-07-18 14:00:01,15.39540998,0.0001985,53.2175,301.6764,30.3381,257.3388,-0.029191,-0.01069957,0.0,0 STARLINK-3688,1 52310U 22041BB  22199.58334491 -.01069957  00000-0 -29191-1 0  9992,2 52310  53.2175 301.6764 0001985  30.3381 257.3388 15.39540998 15032,6825.603,93.534,448.823,446.11300000000006,0.0
52310.0,STARLINK-3688,PAYLOAD,2022-07-18 22:00:00,15.38783126,0.0001938,53.2173,300.1072,26.6242,309.0738,-0.030023,-0.01072984,0.0,0 STARLINK-3688,1 52310U 22041BB  22199.91667824 -.01072984  00000-0 -30023-1 0  9998,2 52310  53.2173 300.1072 0001938  26.6242 309.0738 15.38783126  1308,6827.844,93.58,451.032,448.385,0.0
52310.0,STARLINK-3688,PAYLOAD,2022-07-19 06:00:00,15.38020075,0.0001419,53.2175,298.5396,46.2346,336.5730000000001,-0.030585,-0.01066452,0.0,0 STARLINK-3688,1 52310U 22041BB  22200.25001157 -.01066452  00000-0 -30585-1 0  9995,2 52310  53.2175 298.5396 0001419  46.2346 336.5730 15.38020075 15147,6830.102,93.627,452.936,450.99800000000016,0.0
52310.0,STARLINK-3688,PAYLOAD,2022-07-19 14:00:01,15.37264067,0.0001805,53.2175,296.9769,35.0163,33.9843,-0.031531,-0.01072198,0.0,0 STARLINK-3688,1 52310U 22041BB  22200.58334491 -.01072198  00000-0 -31531-1 0  9997,2 52310  53.2175 296.9769 0001805  35.0163  33.9843 15.37264067  1301,6832.340999999999,93.673,455.439,452.973,0.0
52310.0,STARLINK-3688,PAYLOAD,2022-07-19 22:00:00,15.36502587,0.0001672,53.2173,295.413,41.6766,72.6083,-0.0322089999999999,-0.01068734,0.0,0 STARLINK-3688,1 52310U 22041BB  22200.91667824 -.01068734  00000-0 -32209-1 0  9997,2 52310  53.2173 295.4130 0001672  41.6766  72.6083 15.36502587 15244,6834.598000000001,93.719,457.606,455.32,0.0
52310.0,STARLINK-3688,PAYLOAD,2022-07-20 14:00:01,15.34982891,0.0001916,53.2174,292.2934,39.1719,162.94,-0.03377,-0.01067095,0.0,0 STARLINK-3688,1 52310U 22041BB  22201.58334491 -.01067095  00000-0 -33770-1 0  9995,2 52310  53.2174 292.2934 0001916  39.1719 162.9400 15.34982891  1309,6839.108,93.812,462.284,459.663,0.0
52310.0,STARLINK-3688,PAYLOAD,2022-07-20 22:00:01,15.34225488,0.0001568,53.2173,290.7348,49.203,195.5178,-0.034742,-0.01071055,0.0,0 STARLINK-3688,1 52310U 22041BB  22201.91668981 -.01071055  00000-0 -34742-1 0  9997,2 52310  53.2173 290.7348 0001568  49.2030 195.5178 15.34225488  1307,6841.359,93.858,464.297,462.151,0.0
52310.0,STARLINK-3688,PAYLOAD,2022-07-21 14:00:01,15.32705646,0.0001634,53.2174,287.6263,40.3313,286.7403,-0.036385,-0.0106897,0.0,0 STARLINK-3688,1 52310U 22041BB  22202.58335648 -.01068970  00000-0 -36385-1 0  9999,2 52310  53.2174 287.6263 0001634  40.3313 286.7403 15.32705646  1300,6845.880999999999,93.952,468.864,466.627,0.0
52310.0,STARLINK-3688,PAYLOAD,2022-07-21 22:00:00,15.31946511,0.0001485,53.2173,286.0729,42.4186,324.3968,-0.037311,-0.01070078,0.0,0 STARLINK-3688,1 52310U 22041BB  22202.91667824 -.01070078  00000-0 -37311-1 0  9992,2 52310  53.2173 286.0729 0001485  42.4186 324.3968 15.31946511 15558,6848.142,93.998,471.024,468.99,0.0
52310.0,STARLINK-3688,PAYLOAD,2022-07-22 06:00:00,15.31184221,0.0001574,53.2174,284.5219,41.6355,4.0751,-0.038,-0.01064548,0.0,0 STARLINK-3688,1 52310U 22041BB  22203.25001157 -.01064548  00000-0 -38000-1 0  9992,2 52310  53.2174 284.5219 0001574  41.6355   4.0751 15.31184221  1306,6850.415,94.045,473.358,471.202,0.0
52310.0,STARLINK-3688,PAYLOAD,2022-07-22 22:00:00,15.29666565,0.0001784,53.2174,281.4272,38.6804,82.08,-0.039942,-0.01067028,0.0,0 STARLINK-3688,1 52310U 22041BB  22203.91667824 -.01067028  00000-0 -39942-1 0  9996,2 52310  53.2174 281.4272 0001784  38.6804  82.0800 15.29666565 15702,6854.945,94.138,478.033,475.587,0.0
52310.0,STARLINK-3688,PAYLOAD,2022-07-23 14:00:01,15.28145919,0.0001879,53.2174,278.3403,41.6765,150.5466,-0.041722,-0.01063717,0.0,0 STARLINK-3688,1 52310U 22041BB  22204.58335648 -.01063717  00000-0 -41722-1 0  9996,2 52310  53.2174 278.3403 0001879  41.6765 150.5466 15.28145919  1302,6859.4919999999975,94.232,482.646,480.068,0.0
52310.0,STARLINK-3688,PAYLOAD,2022-07-23 22:00:00,15.27389044,0.0001666999999999,53.2175,276.7975,46.6942,179.7962,-0.042903,-0.01068252,0.0,0 STARLINK-3688,1 52310U 22041BB  22204.91667824 -.01068252  00000-0 -42903-1 0  9998,2 52310  53.2175 276.7975 0001667  46.6942 179.7962 15.27389044  1308,6861.7580000000025,94.279,484.767,482.479,0.0
52310.0,STARLINK-3688,PAYLOAD,2022-07-24 14:00:01,15.25867613,0.0001578,53.2175,273.7215,47.8892,244.5245,-0.044723,-0.01063505,0.0,0 STARLINK-3688,1 52310U 22041BB  22205.58334491 -.01063505  00000-0 -44723-1 0  9991,2 52310  53.2175 273.7215 0001578  47.8892 244.5245 15.25867613  1306,6866.318,94.373,489.267,487.1,0.0
52310.0,STARLINK-3688,PAYLOAD,2022-07-24 22:00:00,15.25110461,0.0001604,53.2175,272.1839,40.1775,283.8295,-0.045985,-0.01068307,0.0,0 STARLINK-3688,1 52310U 22041BB  22205.91667824 -.01068307  00000-0 -45985-1 0  9993,2 52310  53.2175 272.1839 0001604  40.1775 283.8295 15.25110461  1300,6868.590999999999,94.419,491.557,489.354,0.0
52310.0,STARLINK-3688,PAYLOAD,2022-07-25 14:00:01,15.23588992,0.0001633,53.2175,269.1187,40.1503,344.3041,-0.047914,-0.01063755,0.0,0 STARLINK-3688,1 52310U 22041BB  22206.58334491 -.01063755  00000-0 -47914-1 0  9994,2 52310  53.2175 269.1187 0001633  40.1503 344.3041 15.23588992  1301,6873.163000000001,94.514,496.15,493.905,0.0
52310.0,STARLINK-3688,PAYLOAD,2022-07-25 22:00:00,15.22830026,0.0001729,53.2175,267.5863,35.9411,17.3693,-0.049079,-0.01065097,0.0,0 STARLINK-3688,1 52310U 22041BB  22206.91667824 -.01065097  00000-0 -49079-1 0  9995,2 52310  53.2175 267.5863 0001729  35.9411  17.3693 15.22830026 16167,6875.446,94.561,498.5,496.122,0.0
52310.0,STARLINK-3688,PAYLOAD,2022-07-26 14:00:01,15.2130798,0.0001861,53.2175,264.5319,38.043,70.2389,-0.051061,-0.01059696,0.0,0 STARLINK-3688,1 52310U 22041BB  22207.58334491 -.01059696  00000-0 -51061-1 0  9992,2 52310  53.2175 264.5319 0001861  38.0430  70.2389 15.21307980  1309,6880.031,94.655,503.177,500.616,0.0
52310.0,STARLINK-3688,PAYLOAD,2022-07-26 22:00:00,15.20550103,0.0001789,53.2175,263.0049,40.8189,93.5803,-0.052347,-0.0106215,0.0,0 STARLINK-3688,1 52310U 22041BB  22207.91667824 -.01062150  00000-0 -52347-1 0  9995,2 52310  53.2175 263.0049 0001789  40.8189  93.5803 15.20550103 16316,6882.316999999999,94.703,505.413,502.951,0.0
52310.0,STARLINK-3688,PAYLOAD,2022-07-27 14:00:01,15.1902781,0.000174,53.2175,259.9611,47.6992,136.1957,-0.054403,-0.01056264,0.0,0 STARLINK-3688,1 52310U 22041BB  22208.58334491 -.01056264  00000-0 -54403-1 0  9994,2 52310  53.2175 259.9611 0001740  47.6992 136.1957 15.19027810  1308,6886.915,94.797,509.978,507.581,0.0
52310.0,STARLINK-3688,PAYLOAD,2022-07-27 22:00:00,15.18271105,0.0001751999999999,53.2175,258.4393,44.8788,162.3951,-0.05587,-0.0107414,0.0,0 STARLINK-3688,1 52310U 22041BB  22208.91667824 -.01074140  00000-0 -55870-1 0  9992,2 52310  53.2175 258.4393 0001752  44.8788 162.3951 15.18271105  1306,6889.203,94.845,512.275,509.861,0.0
52310.0,STARLINK-3688,PAYLOAD,2022-07-28 14:00:01,15.16749737,0.0001771999999999,53.2174,255.4063,43.1942,208.0988,-0.05811,-0.01069549,0.0,0 STARLINK-3688,1 52310U 22041BB  22209.58334491 -.01069549  00000-0 -58110-1 0  9994,2 52310  53.2174 255.4063 0001772  43.1942 208.0988 15.16749737  1309,6893.809,94.94,516.895,514.452,0.0
52310.0,STARLINK-3688,PAYLOAD,2022-07-28 22:00:00,15.15992184,0.0001645,53.2175,253.8897,45.1986,226.7359,-0.059614,-0.01073324,0.0,0 STARLINK-3688,1 52310U 22041BB  22209.91667824 -.01073324  00000-0 -59614-1 0  9996,2 52310  53.2175 253.8897 0001645  45.1986 226.7359 15.15992184  1300,6896.105,94.987,519.104,516.836,0.0
52310.0,STARLINK-3688,PAYLOAD,2022-07-29 00:00:00,15.1580109,0.0001601,53.2173,253.511,39.8071,327.1457,-0.0598529999999999,-0.01071856,0.0,0 STARLINK-3688,1 52310U 22041BB  22210.00001157 -.01071856  00000-0 -59853-1 0  9992,2 52310  53.2173 253.5110 0001601  39.8071 327.1457 15.15801090 16632,6896.685,94.999,519.654,517.445,0.0
52310.0,STARLINK-3688,PAYLOAD,2022-07-29 14:00:01,15.14472377,0.0001541999999999,53.2173,250.8673,47.5854,262.8917,-0.062115,-0.01071088,0.0,0 STARLINK-3688,1 52310U 22041BB  22210.58334491 -.01071088  00000-0 -62115-1 0  9997,2 52310  53.2173 250.8673 0001542  47.5854 262.8917 15.14472377  1300,6900.718000000003,95.083,523.6469999999998,521.519,0.0
52310.0,STARLINK-3688,PAYLOAD,2022-07-29 22:00:00,15.13712882,0.0001557,53.2175,249.3561,43.8609,284.5205,-0.0635309999999999,-0.01072109,0.0,0 STARLINK-3688,1 52310U 22041BB  22210.91667824 -.01072109  00000-0 -63531-1 0  9991,2 52310  53.2175 249.3561 0001557  43.8609 284.5205 15.13712882 16779,6903.026,95.13,525.966,523.816,0.0
